{
  "type": "FeatureCollection",
  "features": [
    {
      "type": "Feature",
      "properties": {
        "norad_id": 34752,
        "name": "COSMOS 2251 DEB",
        "group": "cosmos-2251-debris",
        "lat": 36.218592255882754,
        "lon": 155.31821202513086,
        "alt_km": 534.6694909339758,
        "timestamp": "2025-12-19T04:59:48.701879+00:00",
        "meta_object_name": "COSMOS 2251 DEB",
        "meta_object_id": "1993-036ZW",
        "meta_epoch": "2025-12-18T09:09:43.409952",
        "meta_mean_motion": 15.00053177,
        "meta_eccentricity": 0.00476294,
        "meta_inclination": 74.0127,
        "meta_ra_of_asc_node": 349.1207,
        "meta_arg_of_pericenter": 115.632,
        "meta_mean_anomaly": 244.98,
        "meta_ephemeris_type": 0,
        "meta_classification_type": "U",
        "meta_norad_cat_id": 34752,
        "meta_element_set_no": 999,
        "meta_rev_at_epoch": 89934,
        "meta_bstar": 0.00079197255,
        "meta_mean_motion_dot": 0.00010076,
        "meta_mean_motion_ddot": 0,
        "tle_line1": "1 34752U 93036ZW  25352.38175243  .00010076  00000+0  79197-3 0  9991",
        "tle_line2": "2 34752  74.0127 349.1207 0047629 115.6320 244.9800 15.00053177899345"
      },
      "geometry": {
        "type": "Point",
        "coordinates": [
          155.31821202513086,
          36.218592255882754
        ]
      }
    },
    {
      "type": "Feature",
      "properties": {
        "norad_id": 34754,
        "name": "COSMOS 2251 DEB",
        "group": "cosmos-2251-debris",
        "lat": 8.777293636756482,
        "lon": 33.10371824004556,
        "alt_km": 778.2249522629209,
        "timestamp": "2025-12-19T04:59:48.701889+00:00",
        "meta_object_name": "COSMOS 2251 DEB",
        "meta_object_id": "1993-036ZY",
        "meta_epoch": "2025-12-18T15:00:37.456128",
        "meta_mean_motion": 14.4048974,
        "meta_eccentricity": 0.00297999,
        "meta_inclination": 74.0297,
        "meta_ra_of_asc_node": 216.7156,
        "meta_arg_of_pericenter": 331.7246,
        "meta_mean_anomaly": 58.2657,
        "meta_ephemeris_type": 0,
        "meta_classification_type": "U",
        "meta_norad_cat_id": 34754,
        "meta_element_set_no": 999,
        "meta_rev_at_epoch": 88218,
        "meta_bstar": 0.00016077931,
        "meta_mean_motion_dot": 4.87e-06,
        "meta_mean_motion_ddot": 0,
        "tle_line1": "1 34754U 93036ZY  25352.62543352  .00000487  00000+0  16078-3 0  9994",
        "tle_line2": "2 34754  74.0297 216.7156 0029799 331.7246  58.2657 14.40489740882185"
      },
      "geometry": {
        "type": "Point",
        "coordinates": [
          33.10371824004556,
          8.777293636756482
        ]
      }
    },
    {
      "type": "Feature",
      "properties": {
        "norad_id": 34755,
        "name": "COSMOS 2251 DEB",
        "group": "cosmos-2251-debris",
        "lat": -8.889789340735511,
        "lon": -82.95616077670444,
        "alt_km": 881.2299038811634,
        "timestamp": "2025-12-19T04:59:48.701899+00:00",
        "meta_object_name": "COSMOS 2251 DEB",
        "meta_object_id": "1993-036ZZ",
        "meta_epoch": "2025-12-17T05:50:06.069984",
        "meta_mean_motion": 13.50569003,
        "meta_eccentricity": 0.04081843,
        "meta_inclination": 73.926,
        "meta_ra_of_asc_node": 282.7855,
        "meta_arg_of_pericenter": 301.8273,
        "meta_mean_anomaly": 214.5982,
        "meta_ephemeris_type": 0,
        "meta_classification_type": "U",
        "meta_norad_cat_id": 34755,
        "meta_element_set_no": 999,
        "meta_rev_at_epoch": 82584,
        "meta_bstar": 0.00078980416,
        "meta_mean_motion_dot": 8.28e-06,
        "meta_mean_motion_ddot": 0,
        "tle_line1": "1 34755U 93036ZZ  25351.24312581  .00000828  00000+0  78980-3 0  9999",
        "tle_line2": "2 34755  73.9260 282.7855 0408184 301.8273 214.5982 13.50569003825849"
      },
      "geometry": {
        "type": "Point",
        "coordinates": [
          -82.95616077670444,
          -8.889789340735511
        ]
      }
    },
    {
      "type": "Feature",
      "properties": {
        "norad_id": 34756,
        "name": "COSMOS 2251 DEB",
        "group": "cosmos-2251-debris",
        "lat": -71.98283184583634,
        "lon": 31.851870478016682,
        "alt_km": 846.4647263698953,
        "timestamp": "2025-12-19T04:59:48.701910+00:00",
        "meta_object_name": "COSMOS 2251 DEB",
        "meta_object_id": "1993-036AAA",
        "meta_epoch": "2025-12-18T15:19:23.700864",
        "meta_mean_motion": 13.6725721,
        "meta_eccentricity": 0.03454365,
        "meta_inclination": 74.0031,
        "meta_ra_of_asc_node": 94.6691,
        "meta_arg_of_pericenter": 329.2106,
        "meta_mean_anomaly": 28.9139,
        "meta_ephemeris_type": 0,
        "meta_classification_type": "U",
        "meta_norad_cat_id": 34756,
        "meta_element_set_no": 999,
        "meta_rev_at_epoch": 83502,
        "meta_bstar": 0.00084968801,
        "meta_mean_motion_dot": 1.054e-05,
        "meta_mean_motion_ddot": 0,
        "tle_line1": "1 34756U 93036AAA 25352.63846876  .00001054  00000+0  84969-3 0  9999",
        "tle_line2": "2 34756  74.0031  94.6691 0345436 329.2106  28.9139 13.67257210835029"
      },
      "geometry": {
        "type": "Point",
        "coordinates": [
          31.851870478016682,
          -71.98283184583634
        ]
      }
    },
    {
      "type": "Feature",
      "properties": {
        "norad_id": 34758,
        "name": "COSMOS 2251 DEB",
        "group": "cosmos-2251-debris",
        "lat": -3.6923677019426746,
        "lon": 110.1412531935834,
        "alt_km": 1230.717115233817,
        "timestamp": "2025-12-19T04:59:48.701920+00:00",
        "meta_object_name": "COSMOS 2251 DEB",
        "meta_object_id": "1993-036AAC",
        "meta_epoch": "2025-12-17T06:09:51.620544",
        "meta_mean_motion": 13.58084731,
        "meta_eccentricity": 0.03816404,
        "meta_inclination": 74.1075,
        "meta_ra_of_asc_node": 292.2273,
        "meta_arg_of_pericenter": 54.8808,
        "meta_mean_anomaly": 308.7451,
        "meta_ephemeris_type": 0,
        "meta_classification_type": "U",
        "meta_norad_cat_id": 34758,
        "meta_element_set_no": 999,
        "meta_rev_at_epoch": 82971,
        "meta_bstar": 0.001447828,
        "meta_mean_motion_dot": 1.667e-05,
        "meta_mean_motion_ddot": 0,
        "tle_line1": "1 34758U 93036AAC 25351.25684746  .00001667  00000+0  14478-2 0  9991",
        "tle_line2": "2 34758  74.1075 292.2273 0381640  54.8808 308.7451 13.58084731829710"
      },
      "geometry": {
        "type": "Point",
        "coordinates": [
          110.1412531935834,
          -3.6923677019426746
        ]
      }
    },
    {
      "type": "Feature",
      "properties": {
        "norad_id": 34760,
        "name": "COSMOS 2251 DEB",
        "group": "cosmos-2251-debris",
        "lat": 58.628357395408514,
        "lon": -41.23744624045262,
        "alt_km": 809.4182775943054,
        "timestamp": "2025-12-19T04:59:48.701931+00:00",
        "meta_object_name": "COSMOS 2251 DEB",
        "meta_object_id": "1993-036AAE",
        "meta_epoch": "2025-12-15T15:17:34.568160",
        "meta_mean_motion": 14.19579445,
        "meta_eccentricity": 0.00969523,
        "meta_inclination": 74.0638,
        "meta_ra_of_asc_node": 297.1884,
        "meta_arg_of_pericenter": 348.6722,
        "meta_mean_anomaly": 190.5489,
        "meta_ephemeris_type": 0,
        "meta_classification_type": "U",
        "meta_norad_cat_id": 34760,
        "meta_element_set_no": 999,
        "meta_rev_at_epoch": 86729,
        "meta_bstar": 0.00062937679,
        "meta_mean_motion_dot": 1.367e-05,
        "meta_mean_motion_ddot": 0,
        "tle_line1": "1 34760U 93036AAE 25349.63720565  .00001367  00000+0  62938-3 0  9995",
        "tle_line2": "2 34760  74.0638 297.1884 0096952 348.6722 190.5489 14.19579445867299"
      },
      "geometry": {
        "type": "Point",
        "coordinates": [
          -41.23744624045262,
          58.628357395408514
        ]
      }
    },
    {
      "type": "Feature",
      "properties": {
        "norad_id": 34761,
        "name": "COSMOS 2251 DEB",
        "group": "cosmos-2251-debris",
        "lat": 48.96159879084328,
        "lon": 10.079172179128857,
        "alt_km": 737.0634550976001,
        "timestamp": "2025-12-19T04:59:48.701941+00:00",
        "meta_object_name": "COSMOS 2251 DEB",
        "meta_object_id": "1993-036AAF",
        "meta_epoch": "2025-12-18T10:23:37.732704",
        "meta_mean_motion": 14.38069175,
        "meta_eccentricity": 0.00367055,
        "meta_inclination": 74.0291,
        "meta_ra_of_asc_node": 352.299,
        "meta_arg_of_pericenter": 24.712,
        "meta_mean_anomaly": 335.5781,
        "meta_ephemeris_type": 0,
        "meta_classification_type": "U",
        "meta_norad_cat_id": 34761,
        "meta_element_set_no": 999,
        "meta_rev_at_epoch": 87731,
        "meta_bstar": 0.00051543193,
        "meta_mean_motion_dot": 1.547e-05,
        "meta_mean_motion_ddot": 0,
        "tle_line1": "1 34761U 93036AAF 25352.43307561  .00001547  00000+0  51543-3 0  9995",
        "tle_line2": "2 34761  74.0291 352.2990 0036705  24.7120 335.5781 14.38069175877315"
      },
      "geometry": {
        "type": "Point",
        "coordinates": [
          10.079172179128857,
          48.96159879084328
        ]
      }
    }
  ]
}